FLOCK 4G-24             
1 62637U 25009AE  26068.72509072  .00010513  00000+0  38996-3 0  9991
2 62637  97.4061 151.5140 0001802 280.2808  79.8228 15.27784978 63732
STARLINK-34774          
1 66485U 25263A   26068.17606973  .00031101  00000+0  11356-2 0  9991
2 66485  43.0043 353.3213 0001820 252.6515 107.4138 15.27561475 18828
